{"type": "FeatureCollection", "features": [ {"type": "Feature", "properties": {"norad_id": 39155, "name": "COSMOS 2485 (747)", "group": "glo-ops", "lat": 40.10341908730887, "lon": -123.37675660522434, "alt_km": 19131.39179399627, "timestamp": "2025-12-27T19:21:59.012057+00:00", "meta": {"OBJECT_NAME": "COSMOS 2485 (747)", "OBJECT_ID": "2013-019A", "EPOCH": "2025-12-26T16:36:31.892256", "MEAN_MOTION": 2.13103192, "ECCENTRICITY": 0.0025021, "INCLINATION": 65.3204, "RA_OF_ASC_NODE": 79.3983, "ARG_OF_PERICENTER": 230.593, "MEAN_ANOMALY": 129.2312, "EPHEMERIS_TYPE": 0, "CLASSIFICATION_TYPE": "U", "NORAD_CAT_ID": 39155, "ELEMENT_SET_NO": 999, "REV_AT_EPOCH": 9860, "BSTAR": 0, "MEAN_MOTION_DOT": -8e-08, "MEAN_MOTION_DDOT": 0}, "tle": {"line1": "1 39155U 13019A   25360.69203579 -.00000008  00000+0  00000+0 0  9991", "line2": "2 39155  65.3204  79.3983 0025021 230.5930 129.2312  2.13103192 98601"}}, "geometry": {"type": "Point", "coordinates": [-123.37675660522434, 40.10341908730887]}}, {"type": "Feature", "properties": {"norad_id": 39620, "name": "COSMOS 2492 (754)", "group": "glo-ops", "lat": 11.876400766763377, "lon": 134.22159132488127, "alt_km": 19159.508920673947, "timestamp": "2025-12-27T19:21:59.012067+00:00", "meta": {"OBJECT_NAME": "COSMOS 2492 (754)", "OBJECT_ID": "2014-012A", "EPOCH": "2025-12-26T15:36:55.855008", "MEAN_MOTION": 2.13103318, "ECCENTRICITY": 0.00143264, "INCLINATION": 65.4001, "RA_OF_ASC_NODE": 319.7994, "ARG_OF_PERICENTER": 314.1039, "MEAN_ANOMALY": 45.7823, "EPHEMERIS_TYPE": 0, "CLASSIFICATION_TYPE": "U", "NORAD_CAT_ID": 39620, "ELEMENT_SET_NO": 999, "REV_AT_EPOCH": 9156, "BSTAR": 0, "MEAN_MOTION_DOT": -3.5e-07, "MEAN_MOTION_DDOT": 0}, "tle": {"line1": "1 39620U 14012A   25360.65064647 -.00000035  00000+0  00000+0 0  9999", "line2": "2 39620  65.4001 319.7994 0014326 314.1039  45.7823  2.13103318 91569"}}, "geometry": {"type": "Point", "coordinates": [134.22159132488127, 11.876400766763377]}}, {"type": "Feature", "properties": {"norad_id": 40001, "name": "COSMOS 2500 (755)", "group": "glo-ops", "lat": 31.476214542519156, "lon": -24.164860258608346, "alt_km": 19145.331242091095, "timestamp": "2025-12-27T19:21:59.012077+00:00", "meta": {"OBJECT_NAME": "COSMOS 2500 (755)", "OBJECT_ID": "2014-032A", "EPOCH": "2025-12-26T08:28:54.444288", "MEAN_MOTION": 2.13106178, "ECCENTRICITY": 0.0007619, "INCLINATION": 65.3358, "RA_OF_ASC_NODE": 319.5702, "ARG_OF_PERICENTER": 219.616, "MEAN_ANOMALY": 140.3327, "EPHEMERIS_TYPE": 0, "CLASSIFICATION_TYPE": "U", "NORAD_CAT_ID": 40001, "ELEMENT_SET_NO": 999, "REV_AT_EPOCH": 8977, "BSTAR": 0, "MEAN_MOTION_DOT": -3.4e-07, "MEAN_MOTION_DDOT": 0}, "tle": {"line1": "1 40001U 14032A   25360.35340792 -.00000034  00000+0  00000+0 0  9990", "line2": "2 40001  65.3358 319.5702 0007619 219.6160 140.3327  2.13106178 89772"}}, "geometry": {"type": "Point", "coordinates": [-24.164860258608346, 31.476214542519156]}}, {"type": "Feature", "properties": {"norad_id": 40315, "name": "COSMOS 2501 (702K)", "group": "glo-ops", "lat": -13.982791145046072, "lon": 23.40841570359915, "alt_km": 19081.459116850197, "timestamp": "2025-12-27T19:21:59.012088+00:00", "meta": {"OBJECT_NAME": "COSMOS 2501 (702K)", "OBJECT_ID": "2014-075A", "EPOCH": "2025-12-27T01:58:52.696704", "MEAN_MOTION": 2.13101389, "ECCENTRICITY": 0.00201, "INCLINATION": 63.616, "RA_OF_ASC_NODE": 196.3279, "ARG_OF_PERICENTER": 203.8362, "MEAN_ANOMALY": 156.1227, "EPHEMERIS_TYPE": 0, "CLASSIFICATION_TYPE": "U", "NORAD_CAT_ID": 40315, "ELEMENT_SET_NO": 999, "REV_AT_EPOCH": 8618, "BSTAR": 0, "MEAN_MOTION_DOT": 1.2e-06, "MEAN_MOTION_DDOT": 0}, "tle": {"line1": "1 40315U 14075A   25361.08255436  .00000120  00000+0  00000+0 0  9991", "line2": "2 40315  63.6160 196.3279 0020100 203.8362 156.1227  2.13101389 86186"}}, "geometry": {"type": "Point", "coordinates": [23.40841570359915, -13.982791145046072]}}, {"type": "Feature", "properties": {"norad_id": 41330, "name": "COSMOS 2514 (751)", "group": "glo-ops", "lat": -25.107893465167233, "lon": 151.42267133221387, "alt_km": 19104.82408161361, "timestamp": "2025-12-27T19:21:59.012098+00:00", "meta": {"OBJECT_NAME": "COSMOS 2514 (751)", "OBJECT_ID": "2016-008A", "EPOCH": "2025-12-27T01:35:56.250528", "MEAN_MOTION": 2.13102531, "ECCENTRICITY": 0.00114841, "INCLINATION": 65.1254, "RA_OF_ASC_NODE": 318.9135, "ARG_OF_PERICENTER": 219.9795, "MEAN_ANOMALY": 139.9404, "EPHEMERIS_TYPE": 0, "CLASSIFICATION_TYPE": "U", "NORAD_CAT_ID": 41330, "ELEMENT_SET_NO": 999, "REV_AT_EPOCH": 7695, "BSTAR": 0, "MEAN_MOTION_DOT": -3.7e-07, "MEAN_MOTION_DDOT": 0}, "tle": {"line1": "1 41330U 16008A   25361.06662327 -.00000037  00000+0  00000+0 0  9994", "line2": "2 41330  65.1254 318.9135 0011484 219.9795 139.9404  2.13102531 76951"}}, "geometry": {"type": "Point", "coordinates": [151.42267133221387, -25.107893465167233]}}, {"type": "Feature", "properties": {"norad_id": 42939, "name": "COSMOS 2522 (752)", "group": "glo-ops", "lat": -24.956443354241777, "lon": -175.36801054929728, "alt_km": 19138.608560912086, "timestamp": "2025-12-27T19:21:59.012108+00:00", "meta": {"OBJECT_NAME": "COSMOS 2522 (752)", "OBJECT_ID": "2017-055A", "EPOCH": "2025-12-26T21:43:05.051712", "MEAN_MOTION": 2.13102008, "ECCENTRICITY": 0.00062768, "INCLINATION": 64.0768, "RA_OF_ASC_NODE": 197.7464, "ARG_OF_PERICENTER": 223.1199, "MEAN_ANOMALY": 136.885, "EPHEMERIS_TYPE": 0, "CLASSIFICATION_TYPE": "U", "NORAD_CAT_ID": 42939, "ELEMENT_SET_NO": 999, "REV_AT_EPOCH": 6430, "BSTAR": 0, "MEAN_MOTION_DOT": 1.18e-06, "MEAN_MOTION_DDOT": 0}, "tle": {"line1": "1 42939U 17055A   25360.90491958  .00000118  00000+0  00000+0 0  9994", "line2": "2 42939  64.0768 197.7464 0006276 223.1199 136.8850  2.13102008 64307"}}, "geometry": {"type": "Point", "coordinates": [-175.36801054929728, -24.956443354241777]}}, {"type": "Feature", "properties": {"norad_id": 43508, "name": "COSMOS 2527 (756)", "group": "glo-ops", "lat": 1.8118166577068284, "lon": 80.46497099349423, "alt_km": 19146.12511655196, "timestamp": "2025-12-27T19:21:59.012118+00:00", "meta": {"OBJECT_NAME": "COSMOS 2527 (756)", "OBJECT_ID": "2018-053A", "EPOCH": "2025-12-25T22:15:18.516960", "MEAN_MOTION": 2.13102285, "ECCENTRICITY": 0.00091278, "INCLINATION": 65.4787, "RA_OF_ASC_NODE": 79.6912, "ARG_OF_PERICENTER": 228.9036, "MEAN_ANOMALY": 131.0649, "EPHEMERIS_TYPE": 0, "CLASSIFICATION_TYPE": "U", "NORAD_CAT_ID": 43508, "ELEMENT_SET_NO": 999, "REV_AT_EPOCH": 5858, "BSTAR": 0, "MEAN_MOTION_DOT": -3e-08, "MEAN_MOTION_DDOT": 0}, "tle": {"line1": "1 43508U 18053A   25359.92729765 -.00000003  00000+0  00000+0 0  9990", "line2": "2 43508  65.4787  79.6912 0009127 228.9036 131.0649  2.13102285 58586"}}, "geometry": {"type": "Point", "coordinates": [80.46497099349423, 1.8118166577068284]}}, {"type": "Feature", "properties": {"norad_id": 43687, "name": "COSMOS 2529 (757)", "group": "glo-ops", "lat": -59.319380750728094, "lon": 144.06991370238464, "alt_km": 19121.730434838188, "timestamp": "2025-12-27T19:21:59.012128+00:00", "meta": {"OBJECT_NAME": "COSMOS 2529 (757)", "OBJECT_ID": "2018-086A", "EPOCH": "2025-12-26T23:06:55.462752", "MEAN_MOTION": 2.13102033, "ECCENTRICITY": 0.00068493, "INCLINATION": 64.293, "RA_OF_ASC_NODE": 198.4076, "ARG_OF_PERICENTER": 253.3441, "MEAN_ANOMALY": 106.6358, "EPHEMERIS_TYPE": 0, "CLASSIFICATION_TYPE": "U", "NORAD_CAT_ID": 43687, "ELEMENT_SET_NO": 999, "REV_AT_EPOCH": 5561, "BSTAR": 0, "MEAN_MOTION_DOT": 1.18e-06, "MEAN_MOTION_DDOT": 0}, "tle": {"line1": "1 43687U 18086A   25360.96314193  .00000118  00000+0  00000+0 0  9991", "line2": "2 43687  64.2930 198.4076 0006849 253.3441 106.6358  2.13102033 55619"}}, "geometry": {"type": "Point", "coordinates": [144.06991370238464, -59.319380750728094]}}, {"type": "Feature", "properties": {"norad_id": 44299, "name": "COSMOS 2534 (758)", "group": "glo-ops", "lat": 52.57379111434776, "lon": -122.73714403670394, "alt_km": 19140.23661617234, "timestamp": "2025-12-27T19:21:59.012139+00:00", "meta": {"OBJECT_NAME": "COSMOS 2534 (758)", "OBJECT_ID": "2019-030A", "EPOCH": "2025-12-27T11:49:04.620576", "MEAN_MOTION": 2.13102152, "ECCENTRICITY": 0.0008619, "INCLINATION": 64.3665, "RA_OF_ASC_NODE": 198.3955, "ARG_OF_PERICENTER": 283.8926, "MEAN_ANOMALY": 256.5547, "EPHEMERIS_TYPE": 0, "CLASSIFICATION_TYPE": "U", "NORAD_CAT_ID": 44299, "ELEMENT_SET_NO": 999, "REV_AT_EPOCH": 5126, "BSTAR": 0, "MEAN_MOTION_DOT": 1.23e-06, "MEAN_MOTION_DDOT": 0}, "tle": {"line1": "1 44299U 19030A   25361.49241459  .00000123  00000+0  00000+0 0  9990", "line2": "2 44299  64.3665 198.3955 0008619 283.8926 256.5547  2.13102152 51267"}}, "geometry": {"type": "Point", "coordinates": [-122.73714403670394, 52.57379111434776]}}, {"type": "Feature", "properties": {"norad_id": 44850, "name": "COSMOS 2544 (759)", "group": "glo-ops", "lat": 39.57279091764071, "lon": 101.60818089671479, "alt_km": 19158.357274939346, "timestamp": "2025-12-27T19:21:59.012149+00:00", "meta": {"OBJECT_NAME": "COSMOS 2544 (759)", "OBJECT_ID": "2019-088A", "EPOCH": "2025-12-27T06:42:41.595840", "MEAN_MOTION": 2.13102058, "ECCENTRICITY": 0.001444, "INCLINATION": 65.467, "RA_OF_ASC_NODE": 79.4725, "ARG_OF_PERICENTER": 250.8166, "MEAN_ANOMALY": 109.0715, "EPHEMERIS_TYPE": 0, "CLASSIFICATION_TYPE": "U", "NORAD_CAT_ID": 44850, "ELEMENT_SET_NO": 999, "REV_AT_EPOCH": 4705, "BSTAR": 0, "MEAN_MOTION_DOT": -1.2e-07, "MEAN_MOTION_DDOT": 0}, "tle": {"line1": "1 44850U 19088A   25361.27964810 -.00000012  00000+0  00000+0 0  9993", "line2": "2 44850  65.4670  79.4725 0014440 250.8166 109.0715  2.13102058 47057"}}, "geometry": {"type": "Point", "coordinates": [101.60818089671479, 39.57279091764071]}}]}